[{"OBJECT_NAME":"STARLINK-34361","OBJECT_ID":"2025-130N","EPOCH":"2026-03-09T10:26:50.063424","MEAN_MOTION":15.3021918,"ECCENTRICITY":9.235e-5,"INCLINATION":53.16,"RA_OF_ASC_NODE":89.7525,"ARG_OF_PERICENTER":79.2623,"MEAN_ANOMALY":280.8482,"EPHEMERIS_TYPE":0,"CLASSIFICATION_TYPE":"U","NORAD_CAT_ID":64450,"ELEMENT_SET_NO":999,"REV_AT_EPOCH":4183,"BSTAR":0.00079881741,"MEAN_MOTION_DOT":0.00023388,"MEAN_MOTION_DDOT":0},{"OBJECT_NAME":"CZ-4B DEB","OBJECT_ID":"2006-015E","EPOCH":"2026-03-09T20:34:53.082912","MEAN_MOTION":15.19885806,"ECCENTRICITY":0.00461993,"INCLINATION":98.0565,"RA_OF_ASC_NODE":201.7753,"ARG_OF_PERICENTER":62.4887,"MEAN_ANOMALY":298.1031,"EPHEMERIS_TYPE":0,"CLASSIFICATION_TYPE":"U","NORAD_CAT_ID":29538,"ELEMENT_SET_NO":999,"REV_AT_EPOCH":5389,"BSTAR":0.0022587151,"MEAN_MOTION_DOT":0.00050103,"MEAN_MOTION_DDOT":0}]
